start=new Date('2023-01-20T00:00:00.000Z').valueOf();
sats=[{"SITE":"AFETR","PERIAPSIS":"430.673","LAUNCH_DATE":"2022-12-17","MEAN_ELEMENT_THEORY":"SGP4","OBJECT_ID":"2022-175AL","TLE_LINE2":"2 54792  53.2138 146.1229 0001173  76.5771  28.1737 15.44968906  1305","FILE":"3754973","CENTER_NAME":"EARTH","MEAN_ANOMALY":"28.1737","EPOCH":"2023-01-19T14:00:01.000224","DECAY_DATE":null,"RA_OF_ASC_NODE":"146.1229","ELEMENT_SET_NO":"999","SEMIMAJOR_AXIS":"6809.606","EPHEMERIS_TYPE":"0","RCS_SIZE":"LARGE","MEAN_MOTION_DDOT":"0.0000000000000","BSTAR":"-0.02749100000000","OBJECT_NAME":"STARLINK-5431","CLASSIFICATION_TYPE":"U","COUNTRY_CODE":"US","ECCENTRICITY":"0.00011730","INCLINATION":"53.2138","REF_FRAME":"TEME","MEAN_MOTION":"15.44968906","NORAD_CAT_ID":"54792","TLE_LINE1":"1 54792U 22175AL  23019.58334491 -.01197436  00000-0 -27491-1 0  9993","GP_ID":"223500882","OBJECT_TYPE":"PAYLOAD","PERIOD":"93.206","REV_AT_EPOCH":"130","APOAPSIS":"432.270","MEAN_MOTION_DOT":"-0.01197436","ARG_OF_PERICENTER":"76.5771","TIME_SYSTEM":"UTC"},{"COUNTRY_CODE":"US","CLASSIFICATION_TYPE":"U","MEAN_MOTION_DDOT":"0.0000000000000","BSTAR":"0.00051055000000","OBJECT_NAME":"STARLINK-5433","EPHEMERIS_TYPE":"0","RCS_SIZE":"LARGE","ELEMENT_SET_NO":"999","SEMIMAJOR_AXIS":"6727.873","DECAY_DATE":null,"RA_OF_ASC_NODE":"143.7151","EPOCH":"2023-01-19T15:02:36.107520","MEAN_ANOMALY":"252.5850","CENTER_NAME":"EARTH","MEAN_ELEMENT_THEORY":"SGP4","OBJECT_ID":"2022-175AM","FILE":"3755041","TLE_LINE2":"2 54793  53.2189 143.7151 0001140 107.5295 252.5850 15.73207695  4900","PERIAPSIS":"348.971","LAUNCH_DATE":"2022-12-17","SITE":"AFETR","TIME_SYSTEM":"UTC","ARG_OF_PERICENTER":"107.5295","MEAN_MOTION_DOT":"0.00071669","APOAPSIS":"350.505","REV_AT_EPOCH":"490","PERIOD":"91.533","OBJECT_TYPE":"PAYLOAD","GP_ID":"223502594","NORAD_CAT_ID":"54793","TLE_LINE1":"1 54793U 22175AM  23019.62680680  .00071669  00000-0  51055-3 0  9994","MEAN_MOTION":"15.73207695","REF_FRAME":"TEME","ECCENTRICITY":"0.00011400","INCLINATION":"53.2189"},{"MEAN_MOTION":"15.45286232","REF_FRAME":"TEME","INCLINATION":"53.2139","ECCENTRICITY":"0.00012430","PERIOD":"93.187","OBJECT_TYPE":"PAYLOAD","GP_ID":"223500390","TLE_LINE1":"1 54794U 22175AN  23019.58334491 -.01196758  00000-0 -27175-1 0  9990","NORAD_CAT_ID":"54794","TIME_SYSTEM":"UTC","ARG_OF_PERICENTER":"70.3256","MEAN_MOTION_DOT":"-0.01196758","REV_AT_EPOCH":"130","APOAPSIS":"431.385","LAUNCH_DATE":"2022-12-17","PERIAPSIS":"429.693","SITE":"AFETR","CENTER_NAME":"EARTH","TLE_LINE2":"2 54794  53.2139 146.1149 0001243  70.3256  38.2714 15.45286232  1300","FILE":"3754973","OBJECT_ID":"2022-175AN","MEAN_ELEMENT_THEORY":"SGP4","SEMIMAJOR_AXIS":"6808.674","ELEMENT_SET_NO":"999","DECAY_DATE":null,"RA_OF_ASC_NODE":"146.1149","EPOCH":"2023-01-19T14:00:01.000224","MEAN_ANOMALY":"38.2714","COUNTRY_CODE":"US","CLASSIFICATION_TYPE":"U","OBJECT_NAME":"STARLINK-5392","MEAN_MOTION_DDOT":"0.0000000000000","BSTAR":"-0.02717500000000","RCS_SIZE":"LARGE","EPHEMERIS_TYPE":"0"},{"APOAPSIS":"350.215","REV_AT_EPOCH":"703","MEAN_MOTION_DOT":"0.00004238","ARG_OF_PERICENTER":"75.8756","TIME_SYSTEM":"UTC","INCLINATION":"53.2157","ECCENTRICITY":"0.00007900","REF_FRAME":"TEME","MEAN_MOTION":"15.73226832","TLE_LINE1":"1 54795U 22175AP  23019.43860620  .00004238  00000-0  34556-4 0  9995","NORAD_CAT_ID":"54795","GP_ID":"223500638","OBJECT_TYPE":"PAYLOAD","PERIOD":"91.532","MEAN_ANOMALY":"284.2352","EPOCH":"2023-01-19T10:31:35.575680","RA_OF_ASC_NODE":"144.6696","DECAY_DATE":null,"ELEMENT_SET_NO":"999","SEMIMAJOR_AXIS":"6727.819","RCS_SIZE":"LARGE","EPHEMERIS_TYPE":"0","OBJECT_NAME":"STARLINK-5436","BSTAR":"0.00003455600000","MEAN_MOTION_DDOT":"0.0000000000000","CLASSIFICATION_TYPE":"U","COUNTRY_CODE":"US","SITE":"AFETR","LAUNCH_DATE":"2022-12-17","PERIAPSIS":"349.152","FILE":"3754973","TLE_LINE2":"2 54795  53.2157 144.6696 0000790  75.8756 284.2352 15.73226832  7030","MEAN_ELEMENT_THEORY":"SGP4","OBJECT_ID":"2022-175AP","CENTER_NAME":"EARTH"},{"ARG_OF_PERICENTER":"85.3132","TIME_SYSTEM":"UTC","APOAPSIS":"350.350","REV_AT_EPOCH":"492","MEAN_MOTION_DOT":"0.00000958","MEAN_MOTION":"15.73208011","INCLINATION":"53.2144","ECCENTRICITY":"0.00009100","REF_FRAME":"TEME","OBJECT_TYPE":"PAYLOAD","PERIOD":"91.533","TLE_LINE1":"1 54796U 22175AQ  23019.75551496  .00000958  00000-0  11237-4 0  9995","NORAD_CAT_ID":"54796","GP_ID":"223502295","RA_OF_ASC_NODE":"143.0913","DECAY_DATE":null,"SEMIMAJOR_AXIS":"6727.872","ELEMENT_SET_NO":"999","MEAN_ANOMALY":"274.7992","EPOCH":"2023-01-19T18:07:56.492544","CLASSIFICATION_TYPE":"U","COUNTRY_CODE":"US","RCS_SIZE":"LARGE","EPHEMERIS_TYPE":"0","OBJECT_NAME":"STARLINK-5415","MEAN_MOTION_DDOT":"0.0000000000000","BSTAR":"0.00001123700000","SITE":"AFETR","LAUNCH_DATE":"2022-12-17","PERIAPSIS":"349.125","TLE_LINE2":"2 54796  53.2144 143.0913 0000910  85.3132 274.7992 15.73208011  4928","FILE":"3755062","OBJECT_ID":"2022-175AQ","MEAN_ELEMENT_THEORY":"SGP4","CENTER_NAME":"EARTH"},{"FILE":"3755062","TLE_LINE2":"2 54797  53.2146 144.5489 0001267  69.6493  85.1925 15.43836794  4917","MEAN_ELEMENT_THEORY":"SGP4","OBJECT_ID":"2022-175AR","CENTER_NAME":"EARTH","SITE":"AFETR","LAUNCH_DATE":"2022-12-17","PERIAPSIS":"433.937","RCS_SIZE":"LARGE","EPHEMERIS_TYPE":"0","OBJECT_NAME":"STARLINK-5435","BSTAR":"-0.03013300000000","MEAN_MOTION_DDOT":"0.0000000000000","CLASSIFICATION_TYPE":"U","COUNTRY_CODE":"US","EPOCH":"2023-01-19T22:00:00.999936","MEAN_ANOMALY":"85.1925","RA_OF_ASC_NODE":"144.5489","DECAY_DATE":null,"ELEMENT_SET_NO":"999","SEMIMAJOR_AXIS":"6812.935","TLE_LINE1":"1 54797U 22175AR  23019.91667824 -.01256570  00000-0 -30133-1 0  9996","NORAD_CAT_ID":"54797","GP_ID":"223502799","OBJECT_TYPE":"PAYLOAD","PERIOD":"93.274","INCLINATION":"53.2146","ECCENTRICITY":"0.00012670","REF_FRAME":"TEME","MEAN_MOTION":"15.43836794","REV_AT_EPOCH":"491","APOAPSIS":"435.663","MEAN_MOTION_DOT":"-0.01256570","ARG_OF_PERICENTER":"69.6493","TIME_SYSTEM":"UTC"},{"OBJECT_TYPE":"PAYLOAD","PERIOD":"91.533","TLE_LINE1":"1 54798U 22175AS  23019.36642286 -.00001984  00000-0 -97345-5 0  9999","NORAD_CAT_ID":"54798","GP_ID":"223499894","MEAN_MOTION":"15.73204043","INCLINATION":"53.2133","ECCENTRICITY":"0.00003370","REF_FRAME":"TEME","ARG_OF_PERICENTER":"125.4839","TIME_SYSTEM":"UTC","APOAPSIS":"349.975","REV_AT_EPOCH":"702","MEAN_MOTION_DOT":"-0.00001984","FILE":"3754973","TLE_LINE2":"2 54798  53.2133 144.9256 0000337 125.4839 234.6213 15.73204043  7027","MEAN_ELEMENT_THEORY":"SGP4","OBJECT_ID":"2022-175AS","CENTER_NAME":"EARTH","SITE":"AFETR","LAUNCH_DATE":"2022-12-17","PERIAPSIS":"349.522","CLASSIFICATION_TYPE":"U","COUNTRY_CODE":"US","RCS_SIZE":"LARGE","EPHEMERIS_TYPE":"0","OBJECT_NAME":"STARLINK-5420","MEAN_MOTION_DDOT":"0.0000000000000","BSTAR":"-0.00000973450000","DECAY_DATE":null,"RA_OF_ASC_NODE":"144.9256","SEMIMAJOR_AXIS":"6727.884","ELEMENT_SET_NO":"999","MEAN_ANOMALY":"234.6213","EPOCH":"2023-01-19T08:47:38.935104"},{"TLE_LINE1":"1 54799U 22175AT  23019.43581448 -.00002322  00000-0 -12121-4 0  9995","NORAD_CAT_ID":"54799","GP_ID":"223501130","OBJECT_TYPE":"PAYLOAD","PERIOD":"91.532","INCLINATION":"53.2166","ECCENTRICITY":"0.00014050","REF_FRAME":"TEME","MEAN_MOTION":"15.73211878","APOAPSIS":"350.672","REV_AT_EPOCH":"703","MEAN_MOTION_DOT":"-0.00002322","ARG_OF_PERICENTER":"98.6537","TIME_SYSTEM":"UTC","FILE":"3754973","TLE_LINE2":"2 54799  53.2166 144.6524 0001405  98.6537 261.4642 15.73211878  7031","OBJECT_ID":"2022-175AT","MEAN_ELEMENT_THEORY":"SGP4","CENTER_NAME":"EARTH","SITE":"AFETR","LAUNCH_DATE":"2022-12-17","PERIAPSIS":"348.781","RCS_SIZE":"LARGE","EPHEMERIS_TYPE":"0","OBJECT_NAME":"STARLINK-5421","MEAN_MOTION_DDOT":"0.0000000000000","BSTAR":"-0.00001212100000","CLASSIFICATION_TYPE":"U","COUNTRY_CODE":"US","MEAN_ANOMALY":"261.4642","EPOCH":"2023-01-19T10:27:34.371072","DECAY_DATE":null,"RA_OF_ASC_NODE":"144.6524","ELEMENT_SET_NO":"999","SEMIMAJOR_AXIS":"6727.861"},{"COUNTRY_CODE":"US","CLASSIFICATION_TYPE":"U","MEAN_MOTION_DDOT":"0.0000000000000","BSTAR":"0.00003197000000","OBJECT_NAME":"STARLINK-5428","EPHEMERIS_TYPE":"0","RCS_SIZE":"LARGE","ELEMENT_SET_NO":"999","SEMIMAJOR_AXIS":"6727.845","RA_OF_ASC_NODE":"143.7168","DECAY_DATE":null,"EPOCH":"2023-01-19T15:04:22.307808","MEAN_ANOMALY":"274.7628","CENTER_NAME":"EARTH","MEAN_ELEMENT_THEORY":"SGP4","OBJECT_ID":"2022-175AU","TLE_LINE2":"2 54800  53.2161 143.7168 0001271  85.3538 274.7628 15.73217635  4909","FILE":"3755264","PERIAPSIS":"348.855","LAUNCH_DATE":"2022-12-17","SITE":"AFETR","TIME_SYSTEM":"UTC","ARG_OF_PERICENTER":"85.3538","MEAN_MOTION_DOT":"0.00003872","APOAPSIS":"350.565","REV_AT_EPOCH":"490","PERIOD":"91.532","OBJECT_TYPE":"PAYLOAD","GP_ID":"223507815","NORAD_CAT_ID":"54800","TLE_LINE1":"1 54800U 22175AU  23019.62803597  .00003872  00000-0  31970-4 0  9993","MEAN_MOTION":"15.73217635","REF_FRAME":"TEME","ECCENTRICITY":"0.00012710","INCLINATION":"53.2161"},{"PERIOD":"93.218","OBJECT_TYPE":"PAYLOAD","GP_ID":"223502933","TLE_LINE1":"1 54801U 22175AV  23019.91667824 -.01259962  00000-0 -29279-1 0  9999","NORAD_CAT_ID":"54801","MEAN_MOTION":"15.44763798","REF_FRAME":"TEME","INCLINATION":"53.2142","ECCENTRICITY":"0.00012130","TIME_SYSTEM":"UTC","ARG_OF_PERICENTER":"73.3688","MEAN_MOTION_DOT":"-0.01259962","APOAPSIS":"432.900","REV_AT_EPOCH":"491","CENTER_NAME":"EARTH","TLE_LINE2":"2 54801  53.2142 144.5224 0001213  73.3688  95.6131 15.44763798  4914","FILE":"3755084","OBJECT_ID":"2022-175AV","MEAN_ELEMENT_THEORY":"SGP4","LAUNCH_DATE":"2022-12-17","PERIAPSIS":"431.248","SITE":"AFETR","COUNTRY_CODE":"US","CLASSIFICATION_TYPE":"U","OBJECT_NAME":"STARLINK-5429","BSTAR":"-0.02927900000000","MEAN_MOTION_DDOT":"0.0000000000000","RCS_SIZE":"LARGE","EPHEMERIS_TYPE":"0","SEMIMAJOR_AXIS":"6810.209","ELEMENT_SET_NO":"999","DECAY_DATE":null,"RA_OF_ASC_NODE":"144.5224","EPOCH":"2023-01-19T22:00:00.999936","MEAN_ANOMALY":"95.6131"}];
